EROS C3                 
1 54880U 22179A   26194.85860093  .00003122  00000+0  16919-3 0  9993
2 54880 139.3345 157.2600 0007100 170.9942 189.0993 15.11027533196368
