{"fetched_at":"2026-07-14T17:40:40.173Z","source":"https://celestrak.org/NORAD/elements/gp.php?NAME=EROS&FORMAT=JSON","constellation":"eros","records":[{"OBJECT_NAME":"EROS C3","OBJECT_ID":"2022-179A","EPOCH":"2026-07-13T20:36:23.120352","CLASSIFICATION_TYPE":"U","MEAN_MOTION":15.11027533,"ECCENTRICITY":0.00071,"INCLINATION":139.3345,"RA_OF_ASC_NODE":157.26,"ARG_OF_PERICENTER":170.9942,"MEAN_ANOMALY":189.0993,"EPHEMERIS_TYPE":0,"NORAD_CAT_ID":54880,"ELEMENT_SET_NO":999,"REV_AT_EPOCH":19636,"BSTAR":0.00016919,"MEAN_MOTION_DOT":0.00003122,"MEAN_MOTION_DDOT":0}]}
